[{"OBJECT_NAME":"GORIZONT 1 [-]","OBJECT_ID":"1978-118A","EPOCH":"2022-08-17T09:08:24.163008","MEAN_MOTION":1.00304976,"ECCENTRICITY":0.3468594,"INCLINATION":11.0867,"RA_OF_ASC_NODE":203.0415,"ARG_OF_PERICENTER":284.493,"MEAN_ANOMALY":39.8646,"EPHEMERIS_TYPE":0,"CLASSIFICATION_TYPE":"U","NORAD_CAT_ID":11158,"ELEMENT_SET_NO":999,"REV_AT_EPOCH":10890,"BSTAR":0,"MEAN_MOTION_DOT":-1.14e-6,"MEAN_MOTION_DDOT":0},{"OBJECT_NAME":"GORIZONT 2 [-]","OBJECT_ID":"1979-062A","EPOCH":"2022-08-18T18:10:42.598272","MEAN_MOTION":1.00275859,"ECCENTRICITY":0.0002896,"INCLINATION":9.1441,"RA_OF_ASC_NODE":301.1172,"ARG_OF_PERICENTER":238.8838,"MEAN_ANOMALY":119.5749,"EPHEMERIS_TYPE":0,"CLASSIFICATION_TYPE":"U","NORAD_CAT_ID":11440,"ELEMENT_SET_NO":999,"REV_AT_EPOCH":12399,"BSTAR":0,"MEAN_MOTION_DOT":4.5e-7,"MEAN_MOTION_DDOT":0},{"OBJECT_NAME":"GORIZONT 3 [-]","OBJECT_ID":"1979-105A","EPOCH":"2022-08-18T18:10:42.598272","MEAN_MOTION":1.00333537,"ECCENTRICITY":0.0014228,"INCLINATION":9.3037,"RA_OF_ASC_NODE":302.5507,"ARG_OF_PERICENTER":211.5261,"MEAN_ANOMALY":141.0069,"EPHEMERIS_TYPE":0,"CLASSIFICATION_TYPE":"U","NORAD_CAT_ID":11648,"ELEMENT_SET_NO":999,"REV_AT_EPOCH":10845,"BSTAR":0,"MEAN_MOTION_DOT":6.8e-7,"MEAN_MOTION_DDOT":0},{"OBJECT_NAME":"GORIZONT 4 [-]","OBJECT_ID":"1980-049A","EPOCH":"2022-08-18T02:57:12.540384","MEAN_MOTION":0.98630854,"ECCENTRICITY":0.0001151,"INCLINATION":10.4552,"RA_OF_ASC_NODE":308.3264,"ARG_OF_PERICENTER":178.8708,"MEAN_ANOMALY":206.2884,"EPHEMERIS_TYPE":0,"CLASSIFICATION_TYPE":"U","NORAD_CAT_ID":11841,"ELEMENT_SET_NO":999,"REV_AT_EPOCH":21972,"BSTAR":0,"MEAN_MOTION_DOT":-2.02e-6,"MEAN_MOTION_DDOT":0},{"OBJECT_NAME":"GORIZONT 5 [-]","OBJECT_ID":"1982-020A","EPOCH":"2022-08-17T23:59:25.980000","MEAN_MOTION":0.98532754,"ECCENTRICITY":0.0034528,"INCLINATION":11.4461,"RA_OF_ASC_NODE":313.6107,"ARG_OF_PERICENTER":211.236,"MEAN_ANOMALY":182.5708,"EPHEMERIS_TYPE":0,"CLASSIFICATION_TYPE":"U","NORAD_CAT_ID":13092,"ELEMENT_SET_NO":999,"REV_AT_EPOCH":10781,"BSTAR":0,"MEAN_MOTION_DOT":-1.09e-6,"MEAN_MOTION_DDOT":0},{"OBJECT_NAME":"GORIZONT 6 [-]","OBJECT_ID":"1982-103A","EPOCH":"2022-08-18T13:27:42.974784","MEAN_MOTION":1.00276932,"ECCENTRICITY":0.0003173,"INCLINATION":10.3656,"RA_OF_ASC_NODE":313.6392,"ARG_OF_PERICENTER":176.6777,"MEAN_ANOMALY":226.6736,"EPHEMERIS_TYPE":0,"CLASSIFICATION_TYPE":"U","NORAD_CAT_ID":13624,"ELEMENT_SET_NO":999,"REV_AT_EPOCH":10691,"BSTAR":0,"MEAN_MOTION_DOT":8.8e-7,"MEAN_MOTION_DDOT":0},{"OBJECT_NAME":"GORIZONT 7 [-]","OBJECT_ID":"1983-066A","EPOCH":"2022-08-19T01:35:48.129792","MEAN_MOTION":0.9834968,"ECCENTRICITY":0.0008317,"INCLINATION":12.0228,"RA_OF_ASC_NODE":322.959,"ARG_OF_PERICENTER":313.924,"MEAN_ANOMALY":49.7256,"EPHEMERIS_TYPE":0,"CLASSIFICATION_TYPE":"U","NORAD_CAT_ID":14160,"ELEMENT_SET_NO":999,"REV_AT_EPOCH":14104,"BSTAR":0,"MEAN_MOTION_DOT":-2.06e-6,"MEAN_MOTION_DDOT":0},{"OBJECT_NAME":"GORIZONT 8 [-]","OBJECT_ID":"1983-118A","EPOCH":"2022-08-18T10:36:12.943872","MEAN_MOTION":0.98269339,"ECCENTRICITY":0.0030941,"INCLINATION":12.1966,"RA_OF_ASC_NODE":324.8128,"ARG_OF_PERICENTER":149.5141,"MEAN_ANOMALY":237.3306,"EPHEMERIS_TYPE":0,"CLASSIFICATION_TYPE":"U","NORAD_CAT_ID":14532,"ELEMENT_SET_NO":999,"REV_AT_EPOCH":10679,"BSTAR":0,"MEAN_MOTION_DOT":-4.2e-7,"MEAN_MOTION_DDOT":0},{"OBJECT_NAME":"GORIZONT 9 [-]","OBJECT_ID":"1984-041A","EPOCH":"2022-08-18T20:50:13.971264","MEAN_MOTION":1.00230693,"ECCENTRICITY":0.0004908,"INCLINATION":11.3883,"RA_OF_ASC_NODE":322.8518,"ARG_OF_PERICENTER":201.3819,"MEAN_ANOMALY":202.6869,"EPHEMERIS_TYPE":0,"CLASSIFICATION_TYPE":"U","NORAD_CAT_ID":14940,"ELEMENT_SET_NO":999,"REV_AT_EPOCH":10792,"BSTAR":0,"MEAN_MOTION_DOT":-2.02e-6,"MEAN_MOTION_DDOT":0},{"OBJECT_NAME":"GORIZONT 10 [-]","OBJECT_ID":"1984-078A","EPOCH":"2022-08-18T12:29:30.494976","MEAN_MOTION":1.00204166,"ECCENTRICITY":0.000155,"INCLINATION":11.483,"RA_OF_ASC_NODE":323.8812,"ARG_OF_PERICENTER":138.9098,"MEAN_ANOMALY":260.1851,"EPHEMERIS_TYPE":0,"CLASSIFICATION_TYPE":"U","NORAD_CAT_ID":15144,"ELEMENT_SET_NO":999,"REV_AT_EPOCH":14055,"BSTAR":0,"MEAN_MOTION_DOT":1.23e-6,"MEAN_MOTION_DDOT":0},{"OBJECT_NAME":"GORIZONT 11 [-]","OBJECT_ID":"1985-007A","EPOCH":"2022-08-18T22:38:47.310432","MEAN_MOTION":1.00394071,"ECCENTRICITY":0.0005159,"INCLINATION":11.6628,"RA_OF_ASC_NODE":325.8512,"ARG_OF_PERICENTER":150.4969,"MEAN_ANOMALY":272.3482,"EPHEMERIS_TYPE":0,"CLASSIFICATION_TYPE":"U","NORAD_CAT_ID":15484,"ELEMENT_SET_NO":999,"REV_AT_EPOCH":13861,"BSTAR":0,"MEAN_MOTION_DOT":-1.96e-6,"MEAN_MOTION_DDOT":0},{"OBJECT_NAME":"GORIZONT 12 [-]","OBJECT_ID":"1986-044A","EPOCH":"2022-08-18T22:38:38.729184","MEAN_MOTION":1.00197488,"ECCENTRICITY":0.000205,"INCLINATION":12.2773,"RA_OF_ASC_NODE":331.2131,"ARG_OF_PERICENTER":179.1644,"MEAN_ANOMALY":226.8478,"EPHEMERIS_TYPE":0,"CLASSIFICATION_TYPE":"U","NORAD_CAT_ID":16769,"ELEMENT_SET_NO":999,"REV_AT_EPOCH":13324,"BSTAR":0,"MEAN_MOTION_DOT":-4.7e-7,"MEAN_MOTION_DDOT":0},{"OBJECT_NAME":"GORIZONT 13 [-]","OBJECT_ID":"1986-090A","EPOCH":"2022-08-18T21:11:42.527904","MEAN_MOTION":0.96725499,"ECCENTRICITY":0.0011984,"INCLINATION":14.1494,"RA_OF_ASC_NODE":338.37,"ARG_OF_PERICENTER":343.2317,"MEAN_ANOMALY":25.2542,"EPHEMERIS_TYPE":0,"CLASSIFICATION_TYPE":"U","NORAD_CAT_ID":17083,"ELEMENT_SET_NO":999,"REV_AT_EPOCH":10512,"BSTAR":0,"MEAN_MOTION_DOT":-7.0e-7,"MEAN_MOTION_DDOT":0},{"OBJECT_NAME":"GORIZONT 14 [-]","OBJECT_ID":"1987-040A","EPOCH":"2022-08-18T19:19:42.774816","MEAN_MOTION":0.97659231,"ECCENTRICITY":0.0032679,"INCLINATION":13.101,"RA_OF_ASC_NODE":329.7881,"ARG_OF_PERICENTER":172.532,"MEAN_ANOMALY":236.6849,"EPHEMERIS_TYPE":0,"CLASSIFICATION_TYPE":"U","NORAD_CAT_ID":17969,"ELEMENT_SET_NO":999,"REV_AT_EPOCH":10620,"BSTAR":0,"MEAN_MOTION_DOT":-1.35e-6,"MEAN_MOTION_DDOT":0},{"OBJECT_NAME":"GORIZONT 15 [-]","OBJECT_ID":"1988-028A","EPOCH":"2022-08-18T09:21:41.991840","MEAN_MOTION":0.97827597,"ECCENTRICITY":0.0038525,"INCLINATION":14.4349,"RA_OF_ASC_NODE":341.2118,"ARG_OF_PERICENTER":155.5339,"MEAN_ANOMALY":223.6984,"EPHEMERIS_TYPE":0,"CLASSIFICATION_TYPE":"U","NORAD_CAT_ID":19017,"ELEMENT_SET_NO":999,"REV_AT_EPOCH":10580,"BSTAR":0,"MEAN_MOTION_DOT":-5.2e-7,"MEAN_MOTION_DDOT":0},{"OBJECT_NAME":"GORIZONT 16 [-]","OBJECT_ID":"1988-071A","EPOCH":"2022-08-18T07:56:42.648288","MEAN_MOTION":0.99972825,"ECCENTRICITY":0.0014693,"INCLINATION":13.2875,"RA_OF_ASC_NODE":339.8939,"ARG_OF_PERICENTER":68.5412,"MEAN_ANOMALY":328.9684,"EPHEMERIS_TYPE":0,"CLASSIFICATION_TYPE":"U","NORAD_CAT_ID":19397,"ELEMENT_SET_NO":999,"REV_AT_EPOCH":12425,"BSTAR":0,"MEAN_MOTION_DOT":-2.68e-6,"MEAN_MOTION_DDOT":0},{"OBJECT_NAME":"GORIZONT 17 [-]","OBJECT_ID":"1989-004A","EPOCH":"2022-08-18T13:23:48.860160","MEAN_MOTION":0.99068558,"ECCENTRICITY":0.002472,"INCLINATION":13.831,"RA_OF_ASC_NODE":343.2324,"ARG_OF_PERICENTER":132.0702,"MEAN_ANOMALY":240.3197,"EPHEMERIS_TYPE":0,"CLASSIFICATION_TYPE":"U","NORAD_CAT_ID":19765,"ELEMENT_SET_NO":999,"REV_AT_EPOCH":12171,"BSTAR":0,"MEAN_MOTION_DOT":-1.33e-6,"MEAN_MOTION_DDOT":0}]