GORIZONT 1 [-]          
1 11158U 78118A   22229.38083522 -.00000114  00000+0  00000+0 0  9994
2 11158  11.0867 203.0415 3468594 284.4930  39.8646  1.00304976108909
GORIZONT 2 [-]          
1 11440U 79062A   22230.75743748  .00000045  00000+0  00000+0 0  9995
2 11440   9.1441 301.1172 0002896 238.8838 119.5749  1.00275859123998
GORIZONT 3 [-]          
1 11648U 79105A   22230.75743748  .00000068  00000+0  00000+0 0  9998
2 11648   9.3037 302.5507 0014228 211.5261 141.0069  1.00333537108455
GORIZONT 4 [-]          
1 11841U 80049A   22230.12306181 -.00000202  00000+0  00000+0 0  9990
2 11841  10.4552 308.3264 0001151 178.8708 206.2884  0.98630854219721
GORIZONT 5 [-]          
1 13092U 82020A   22229.99960625 -.00000109  00000+0  00000+0 0  9999
2 13092  11.4461 313.6107 0034528 211.2360 182.5708  0.98532754107813
GORIZONT 6 [-]          
1 13624U 82103A   22230.56091406  .00000088  00000+0  00000+0 0  9994
2 13624  10.3656 313.6392 0003173 176.6777 226.6736  1.00276932106910
GORIZONT 7 [-]          
1 14160U 83066A   22231.06652928 -.00000206  00000+0  00000+0 0  9990
2 14160  12.0228 322.9590 0008317 313.9240  49.7256  0.98349680141040
GORIZONT 8 [-]          
1 14532U 83118A   22230.44181648 -.00000042  00000+0  00000+0 0  9996
2 14532  12.1966 324.8128 0030941 149.5141 237.3306  0.98269339106798
GORIZONT 9 [-]          
1 14940U 84041A   22230.86821726 -.00000202  00000+0  00000+0 0  9997
2 14940  11.3883 322.8518 0004908 201.3819 202.6869  1.00230693107924
GORIZONT 10 [-]         
1 15144U 84078A   22230.52049184  .00000123  00000+0  00000+0 0  9998
2 15144  11.4830 323.8812 0001550 138.9098 260.1851  1.00204166140558
GORIZONT 11 [-]         
1 15484U 85007A   22230.94360313 -.00000196  00000+0  00000+0 0  9995
2 15484  11.6628 325.8512 0005159 150.4969 272.3482  1.00394071138610
GORIZONT 12 [-]         
1 16769U 86044A   22230.94350381 -.00000047  00000+0  00000+0 0  9993
2 16769  12.2773 331.2131 0002050 179.1644 226.8478  1.00197488133244
GORIZONT 13 [-]         
1 17083U 86090A   22230.88313111 -.00000070  00000+0  00000+0 0  9993
2 17083  14.1494 338.3700 0011984 343.2317  25.2542  0.96725499105124
GORIZONT 14 [-]         
1 17969U 87040A   22230.80535619 -.00000135  00000+0  00000+0 0  9995
2 17969  13.1010 329.7881 0032679 172.5320 236.6849  0.97659231106204
GORIZONT 15 [-]         
1 19017U 88028A   22230.39006935 -.00000052  00000+0  00000+0 0  9994
2 19017  14.4349 341.2118 0038525 155.5339 223.6984  0.97827597105801
GORIZONT 16 [-]         
1 19397U 88071A   22230.33104917 -.00000268  00000+0  00000+0 0  9995
2 19397  13.2875 339.8939 0014693  68.5412 328.9684  0.99972825124255
GORIZONT 17 [-]         
1 19765U 89004A   22230.55820440 -.00000133  00000+0  00000+0 0  9992
2 19765  13.8310 343.2324 0024720 132.0702 240.3197  0.99068558121715
